[{"OBJECT_NAME":"SHIYAN-6 01 (SY-6 01)","OBJECT_ID":"2018-094B","EPOCH":"2026-03-09T23:04:36.967872","MEAN_MOTION":15.28649156,"ECCENTRICITY":0.00144834,"INCLINATION":97.3669,"RA_OF_ASC_NODE":84.0964,"ARG_OF_PERICENTER":135.6758,"MEAN_ANOMALY":224.5644,"EPHEMERIS_TYPE":0,"CLASSIFICATION_TYPE":"U","NORAD_CAT_ID":43711,"ELEMENT_SET_NO":999,"REV_AT_EPOCH":40632,"BSTAR":0.00024768444,"MEAN_MOTION_DOT":6.847e-5,"MEAN_MOTION_DDOT":0},{"OBJECT_NAME":"STARLINK-35496","OBJECT_ID":"2025-237A","EPOCH":"2026-03-09T07:36:02.361600","MEAN_MOTION":15.3019216,"ECCENTRICITY":0.00014829,"INCLINATION":53.1623,"RA_OF_ASC_NODE":41.3452,"ARG_OF_PERICENTER":97.7172,"MEAN_ANOMALY":262.3997,"EPHEMERIS_TYPE":0,"CLASSIFICATION_TYPE":"U","NORAD_CAT_ID":66114,"ELEMENT_SET_NO":999,"REV_AT_EPOCH":2255,"BSTAR":0.00096285388,"MEAN_MOTION_DOT":0.00028259,"MEAN_MOTION_DDOT":0}]
